STARLINK-1580
1 26041C 20055Q   21325.17013065 -.00000548  00000-0 -36707-4 0  3252
2 26041  53.0543 332.4788 0001567  63.9724  55.5059 15.06392765    16
